{"type": "FeatureCollection", "features": [ {"type": "Feature", "properties": {"norad_id": 35663, "name": "COSMOS 2251 DEB", "group": "cosmos-2251-debris", "lat": 73.26503215151546, "lon": -153.5765397541766, "alt_km": 666.2440531322072, "timestamp": "2025-12-26T03:50:12.490646+00:00", "meta": {"OBJECT_NAME": "COSMOS 2251 DEB", "OBJECT_ID": "1993-036APE", "EPOCH": "2025-12-19T23:59:07.553472", "MEAN_MOTION": 14.65779868, "ECCENTRICITY": 0.00057705, "INCLINATION": 74.0195, "RA_OF_ASC_NODE": 110.6712, "ARG_OF_PERICENTER": 187.908, "MEAN_ANOMALY": 172.1999, "EPHEMERIS_TYPE": 0, "CLASSIFICATION_TYPE": "U", "NORAD_CAT_ID": 35663, "ELEMENT_SET_NO": 999, "REV_AT_EPOCH": 73488, "BSTAR": 0.0009843987, "MEAN_MOTION_DOT": 5.342e-05, "MEAN_MOTION_DDOT": 0}, "tle": {"line1": "1 35663U 93036APE 25353.99939298  .00005342  00000+0  98440-3 0  9991", "line2": "2 35663  74.0195 110.6712 0005770 187.9080 172.1999 14.65779868734880"}}, "geometry": {"type": "Point", "coordinates": [-153.5765397541766, 73.26503215151546]}}, {"type": "Feature", "properties": {"norad_id": 35667, "name": "COSMOS 2251 DEB", "group": "cosmos-2251-debris", "lat": -46.93864684200256, "lon": -47.65894330907782, "alt_km": 691.5570881707845, "timestamp": "2025-12-26T03:50:12.490656+00:00", "meta": {"OBJECT_NAME": "COSMOS 2251 DEB", "OBJECT_ID": "1993-036APJ", "EPOCH": "2025-12-24T01:27:36.306432", "MEAN_MOTION": 14.60135213, "ECCENTRICITY": 0.00189616, "INCLINATION": 74.0566, "RA_OF_ASC_NODE": 118.5285, "ARG_OF_PERICENTER": 178.1022, "MEAN_ANOMALY": 182.022, "EPHEMERIS_TYPE": 0, "CLASSIFICATION_TYPE": "U", "NORAD_CAT_ID": 35667, "ELEMENT_SET_NO": 999, "REV_AT_EPOCH": 70968, "BSTAR": 0.0011760154, "MEAN_MOTION_DOT": 5.65e-05, "MEAN_MOTION_DDOT": 0}, "tle": {"line1": "1 35667U 93036APJ 25358.06083688  .00005650  00000+0  11760-2 0  9992", "line2": "2 35667  74.0566 118.5285 0018961 178.1022 182.0220 14.60135213709684"}}, "geometry": {"type": "Point", "coordinates": [-47.65894330907782, -46.93864684200256]}}, {"type": "Feature", "properties": {"norad_id": 35668, "name": "COSMOS 2251 DEB", "group": "cosmos-2251-debris", "lat": 8.119618212089184, "lon": 12.41999676112636, "alt_km": 715.5898028508909, "timestamp": "2025-12-26T03:50:12.490666+00:00", "meta": {"OBJECT_NAME": "COSMOS 2251 DEB", "OBJECT_ID": "1993-036APK", "EPOCH": "2025-12-24T19:53:20.401440", "MEAN_MOTION": 14.6401809, "ECCENTRICITY": 0.00835538, "INCLINATION": 74.0427, "RA_OF_ASC_NODE": 197.3142, "ARG_OF_PERICENTER": 299.74, "MEAN_ANOMALY": 59.5472, "EPHEMERIS_TYPE": 0, "CLASSIFICATION_TYPE": "U", "NORAD_CAT_ID": 35668, "ELEMENT_SET_NO": 999, "REV_AT_EPOCH": 87824, "BSTAR": 0.00021265403, "MEAN_MOTION_DOT": 1.139e-05, "MEAN_MOTION_DDOT": 0}, "tle": {"line1": "1 35668U 93036APK 25358.82870835  .00001139  00000+0  21265-3 0  9995", "line2": "2 35668  74.0427 197.3142 0083553 299.7400  59.5472 14.64018090878240"}}, "geometry": {"type": "Point", "coordinates": [12.41999676112636, 8.119618212089184]}}, {"type": "Feature", "properties": {"norad_id": 35669, "name": "COSMOS 2251 DEB", "group": "cosmos-2251-debris", "lat": 34.64892513927548, "lon": 149.04580246322632, "alt_km": 1288.0240598842565, "timestamp": "2025-12-26T03:50:12.490677+00:00", "meta": {"OBJECT_NAME": "COSMOS 2251 DEB", "OBJECT_ID": "1993-036APL", "EPOCH": "2025-12-20T02:35:15.805248", "MEAN_MOTION": 13.57168765, "ECCENTRICITY": 0.03877863, "INCLINATION": 73.8603, "RA_OF_ASC_NODE": 147.3718, "ARG_OF_PERICENTER": 257.91, "MEAN_ANOMALY": 97.8317, "EPHEMERIS_TYPE": 0, "CLASSIFICATION_TYPE": "U", "NORAD_CAT_ID": 35669, "ELEMENT_SET_NO": 999, "REV_AT_EPOCH": 60889, "BSTAR": 0.00066721827, "MEAN_MOTION_DOT": 7.5e-06, "MEAN_MOTION_DDOT": 0}, "tle": {"line1": "1 35669U 93036APL 25354.10782182  .00000750  00000+0  66722-3 0  9995", "line2": "2 35669  73.8603 147.3718 0387786 257.9100  97.8317 13.57168765608897"}}, "geometry": {"type": "Point", "coordinates": [149.04580246322632, 34.64892513927548]}}, {"type": "Feature", "properties": {"norad_id": 35670, "name": "COSMOS 2251 DEB", "group": "cosmos-2251-debris", "lat": 62.93097390800426, "lon": -177.1995268518275, "alt_km": 590.3973313520955, "timestamp": "2025-12-26T03:50:12.490687+00:00", "meta": {"OBJECT_NAME": "COSMOS 2251 DEB", "OBJECT_ID": "1993-036APM", "EPOCH": "2025-12-22T20:36:05.670144", "MEAN_MOTION": 14.94150162, "ECCENTRICITY": 0.0038413, "INCLINATION": 73.8936, "RA_OF_ASC_NODE": 43.936, "ARG_OF_PERICENTER": 2.2242, "MEAN_ANOMALY": 357.9104, "EPHEMERIS_TYPE": 0, "CLASSIFICATION_TYPE": "U", "NORAD_CAT_ID": 35670, "ELEMENT_SET_NO": 999, "REV_AT_EPOCH": 87878, "BSTAR": 0.0012423, "MEAN_MOTION_DOT": 0.00013477, "MEAN_MOTION_DDOT": 0}, "tle": {"line1": "1 35670U 93036APM 25356.85839896  .00013477  00000+0  12423-2 0  9994", "line2": "2 35670  73.8936  43.9360 0038413   2.2242 357.9104 14.94150162878785"}}, "geometry": {"type": "Point", "coordinates": [-177.1995268518275, 62.93097390800426]}}, {"type": "Feature", "properties": {"norad_id": 35671, "name": "COSMOS 2251 DEB", "group": "cosmos-2251-debris", "lat": 35.36892380234998, "lon": -137.58543564831382, "alt_km": 724.5581181568677, "timestamp": "2025-12-26T03:50:12.490697+00:00", "meta": {"OBJECT_NAME": "COSMOS 2251 DEB", "OBJECT_ID": "1993-036APN", "EPOCH": "2025-12-25T14:36:47.670048", "MEAN_MOTION": 14.48368538, "ECCENTRICITY": 0.0041274, "INCLINATION": 74.0177, "RA_OF_ASC_NODE": 55.1855, "ARG_OF_PERICENTER": 227.0867, "MEAN_ANOMALY": 284.5499, "EPHEMERIS_TYPE": 0, "CLASSIFICATION_TYPE": "U", "NORAD_CAT_ID": 35671, "ELEMENT_SET_NO": 999, "REV_AT_EPOCH": 86949, "BSTAR": 0.00019838, "MEAN_MOTION_DOT": 7.22e-06, "MEAN_MOTION_DDOT": 0}, "tle": {"line1": "1 35671U 93036APN 25359.60888507  .00000722  00000+0  19838-3 0  9991", "line2": "2 35671  74.0177  55.1855 0041274 227.0867 284.5499 14.48368538869496"}}, "geometry": {"type": "Point", "coordinates": [-137.58543564831382, 35.36892380234998]}}, {"type": "Feature", "properties": {"norad_id": 35674, "name": "COSMOS 2251 DEB", "group": "cosmos-2251-debris", "lat": -51.370063906427696, "lon": -89.7829179474999, "alt_km": 656.9549747468382, "timestamp": "2025-12-26T03:50:12.490708+00:00", "meta": {"OBJECT_NAME": "COSMOS 2251 DEB", "OBJECT_ID": "1993-036APR", "EPOCH": "2025-12-24T19:03:54.003456", "MEAN_MOTION": 14.54389628, "ECCENTRICITY": 0.00963199, "INCLINATION": 74.0626, "RA_OF_ASC_NODE": 293.7457, "ARG_OF_PERICENTER": 335.7924, "MEAN_ANOMALY": 23.8726, "EPHEMERIS_TYPE": 0, "CLASSIFICATION_TYPE": "U", "NORAD_CAT_ID": 35674, "ELEMENT_SET_NO": 999, "REV_AT_EPOCH": 86286, "BSTAR": 0.0018628076, "MEAN_MOTION_DOT": 8.404e-05, "MEAN_MOTION_DDOT": 0}, "tle": {"line1": "1 35674U 93036APR 25358.79437504  .00008404  00000+0  18628-2 0  9990", "line2": "2 35674  74.0626 293.7457 0096319 335.7924  23.8726 14.54389628862868"}}, "geometry": {"type": "Point", "coordinates": [-89.7829179474999, -51.370063906427696]}}, {"type": "Feature", "properties": {"norad_id": 35701, "name": "COSMOS 2251 DEB", "group": "cosmos-2251-debris", "lat": -51.2626443620242, "lon": -101.12911135528682, "alt_km": 1179.1147109311578, "timestamp": "2025-12-26T03:50:12.490718+00:00", "meta": {"OBJECT_NAME": "COSMOS 2251 DEB", "OBJECT_ID": "1993-036APW", "EPOCH": "2025-12-23T03:05:16.939392", "MEAN_MOTION": 13.80906206, "ECCENTRICITY": 0.0288749, "INCLINATION": 74.0066, "RA_OF_ASC_NODE": 284.9129, "ARG_OF_PERICENTER": 131.8115, "MEAN_ANOMALY": 230.8064, "EPHEMERIS_TYPE": 0, "CLASSIFICATION_TYPE": "U", "NORAD_CAT_ID": 35701, "ELEMENT_SET_NO": 999, "REV_AT_EPOCH": 62302, "BSTAR": 0.0013474955, "MEAN_MOTION_DOT": 1.927e-05, "MEAN_MOTION_DDOT": 0}, "tle": {"line1": "1 35701U 93036APW 25357.12866828  .00001927  00000+0  13475-2 0  9990", "line2": "2 35701  74.0066 284.9129 0288749 131.8115 230.8064 13.80906206623025"}}, "geometry": {"type": "Point", "coordinates": [-101.12911135528682, -51.2626443620242]}}, {"type": "Feature", "properties": {"norad_id": 35703, "name": "COSMOS 2251 DEB", "group": "cosmos-2251-debris", "lat": -29.925520088968458, "lon": -154.6170854960672, "alt_km": 630.4651333550764, "timestamp": "2025-12-26T03:50:12.490729+00:00", "meta": {"OBJECT_NAME": "COSMOS 2251 DEB", "OBJECT_ID": "1993-036APY", "EPOCH": "2025-12-24T09:00:55.190592", "MEAN_MOTION": 14.90483201, "ECCENTRICITY": 0.00644143, "INCLINATION": 74.0417, "RA_OF_ASC_NODE": 19.4725, "ARG_OF_PERICENTER": 85.5638, "MEAN_ANOMALY": 275.2899, "EPHEMERIS_TYPE": 0, "CLASSIFICATION_TYPE": "U", "NORAD_CAT_ID": 35703, "ELEMENT_SET_NO": 999, "REV_AT_EPOCH": 66789, "BSTAR": 0.00063398121, "MEAN_MOTION_DOT": 6.404e-05, "MEAN_MOTION_DDOT": 0}, "tle": {"line1": "1 35703U 93036APY 25358.37563878  .00006404  00000+0  63398-3 0  9994", "line2": "2 35703  74.0417  19.4725 0064414  85.5638 275.2899 14.90483201667895"}}, "geometry": {"type": "Point", "coordinates": [-154.6170854960672, -29.925520088968458]}}, {"type": "Feature", "properties": {"norad_id": 35705, "name": "COSMOS 2251 DEB", "group": "cosmos-2251-debris", "lat": -24.187008847979623, "lon": -62.65030287033294, "alt_km": 678.5165989167435, "timestamp": "2025-12-26T03:50:12.490739+00:00", "meta": {"OBJECT_NAME": "COSMOS 2251 DEB", "OBJECT_ID": "1993-036AQA", "EPOCH": "2025-12-21T00:37:19.012800", "MEAN_MOTION": 14.72474593, "ECCENTRICITY": 0.00333276, "INCLINATION": 74.2752, "RA_OF_ASC_NODE": 119.9236, "ARG_OF_PERICENTER": 64.9174, "MEAN_ANOMALY": 295.5452, "EPHEMERIS_TYPE": 0, "CLASSIFICATION_TYPE": "U", "NORAD_CAT_ID": 35705, "ELEMENT_SET_NO": 999, "REV_AT_EPOCH": 86048, "BSTAR": 0.0022061245, "MEAN_MOTION_DOT": 0.00014123, "MEAN_MOTION_DDOT": 0}, "tle": {"line1": "1 35705U 93036AQA 25355.02591450  .00014123  00000+0  22061-2 0  9990", "line2": "2 35705  74.2752 119.9236 0033327  64.9174 295.5452 14.72474593860483"}}, "geometry": {"type": "Point", "coordinates": [-62.65030287033294, -24.187008847979623]}}]}